{"signature":{"source":"NASA/JPL Horizons API","version":"1.2"},"result":"*******************************************************************************
 Revised: April 12, 2021               Jupiter                              599
 
 PHYSICAL DATA (revised 2025-Jan-30):
  Mass x 10^26 (kg)     = 18.9819           Density (g/cm^3)  = 1.3262 +- .0003
  Equat. radius (1 bar) = 71492+-4 km       Polar radius (km)     = 66854+-10
  Vol. Mean Radius (km) = 69911+-6          Flattening            = 0.06487
  Geometric Albedo      = 0.52              Rocky core mass (Mc/M)= 0.0261
  Sid. rot. period (III)= 9h 55m 29.711 s   Sid. rot. rate (rad/s)= 0.00017585
  Mean solar day, hrs   = ~9.9259         
  GM (km^3/s^2)         = 126686531.900     GM 1-sigma (km^3/s^2) =  +- 1.2732
  Equ. grav, ge (m/s^2) = 24.79             Pol. grav, gp (m/s^2) =  28.34
  Vis. magnitude V(1,0) = -9.40
  Vis. mag. (opposition)= -2.70             Obliquity to orbit    =  3.13 deg
  Sidereal orbit period = 11.861982204 y    Sidereal orbit period = 4332.589 d
  Mean daily motion     = 0.0831294 deg/d   Mean orbit speed, km/s= 13.0697
  Atmos. temp. (1 bar)  = 165+-5 K          Escape speed, km/s    =  59.5           
  A_roche(ice)/Rp       =  2.76             Hill's sphere rad. Rp = 740
                                 Perihelion   Aphelion     Mean
  Solar Constant (W/m^2)         56           46           51
  Maximum Planetary IR (W/m^2)   13.7         13.4         13.6
  Minimum Planetary IR (W/m^2)   13.7         13.4         13.6
*******************************************************************************


*******************************************************************************
Ephemeris / API_USER Sat Sep 20 12:30:59 2025 Pasadena, USA      / Horizons    
*******************************************************************************
Target body name: Jupiter (599)                   {source: jup365_merged}
Center body name: Earth (399)                     {source: DE441}
Center-site name: GEOCENTRIC
*******************************************************************************
Start time      : A.D. 2025-Jan-01 00:00:00.0000 UT      
Stop  time      : A.D. 2026-Jan-01 00:00:00.0000 UT      
Step-size       : 60 minutes
*******************************************************************************
Target pole/equ : IAU_JUPITER                     {West-longitude positive}
Target radii    : 71492.0, 71492.0, 66854.0 km    {Equator_a, b, pole_c}       
Center geodetic : 0.0, 0.0, -6378.137             {E-lon(deg),Lat(deg),Alt(km)}
Center cylindric: 0.0, 0.0, 0.0                   {E-lon(deg),Dxy(km),Dz(km)}
Center pole/equ : ITRF93                          {East-longitude positive}
Center radii    : 6378.137, 6378.137, 6356.752 km {Equator_a, b, pole_c}       
Target primary  : Sun
Vis. interferer : MOON (R_eq= 1737.400) km        {source: DE441}
Rel. light bend : Sun                             {source: jup365_merged}
Rel. lght bnd GM: 1.3271E+11 km^3/s^2                                          
Atmos refraction: NO (AIRLESS)
RA format       : HMS
Time format     : CAL 
Calendar mode   : Mixed Julian/Gregorian
EOP file        : eop.250919.p251216                                           
EOP coverage    : DATA-BASED 1962-JAN-20 TO 2025-SEP-19. PREDICTS-> 2025-DEC-15
Units conversion: 1 au= 149597870.700 km, c= 299792.458 km/s, 1 day= 86400.0 s 
Table cut-offs 1: Elevation (-90.0deg=NO ),Airmass (>38.000=NO), Daylight (NO )
Table cut-offs 2: Solar elongation (  0.0,180.0=NO ),Local Hour Angle( 0.0=NO )
Table cut-offs 3: RA/DEC angular rate (     0.0=NO )                           
Table format    : Comma Separated Values (spreadsheet)
*******************************************************************************
 Date__(UT)__HR:MN, , ,   APmag,  S-brt,
****************************************
$$SOE
 2025-Feb-25 21:00, , ,  -2.321,  5.417,
 2025-Feb-25 22:00, , ,  -2.321,  5.417,
 2025-Feb-25 23:00, , ,  -2.321,  5.417,
 2025-Feb-26 00:00, , ,  -2.320,  5.417,
 2025-Feb-26 01:00, , ,  -2.320,  5.417,
 2025-Feb-26 02:00, , ,  -2.320,  5.417,
 2025-Feb-26 03:00, , ,  -2.319,  5.417,
 2025-Feb-26 04:00, , ,  -2.319,  5.417,
 2025-Feb-26 05:00, , ,  -2.319,  5.417,
 2025-Feb-26 06:00, , ,  -2.319,  5.417,
 2025-Feb-26 07:00, , ,  -2.318,  5.417,
 2025-Feb-26 08:00, , ,  -2.318,  5.417,
 2025-Feb-26 09:00, , ,  -2.318,  5.417,
 2025-Feb-26 10:00, , ,  -2.317,  5.417,
 2025-Feb-26 11:00, , ,  -2.317,  5.417,
 2025-Feb-26 12:00, , ,  -2.317,  5.417,
 2025-Feb-26 13:00, , ,  -2.316,  5.417,
 2025-Feb-26 14:00, , ,  -2.316,  5.417,
 2025-Feb-26 15:00, , ,  -2.316,  5.417,
 2025-Feb-26 16:00, , ,  -2.315,  5.417,
 2025-Feb-26 17:00, , ,  -2.315,  5.417,
 2025-Feb-26 18:00, , ,  -2.315,  5.417,
 2025-Feb-26 19:00, , ,  -2.315,  5.417,
 2025-Feb-26 20:00, , ,  -2.314,  5.417,
 2025-Feb-26 21:00, , ,  -2.314,  5.417,
 2025-Feb-26 22:00, , ,  -2.314,  5.417,
 2025-Feb-26 23:00, , ,  -2.313,  5.417,
 2025-Feb-27 00:00, , ,  -2.313,  5.417,
 2025-Feb-27 01:00, , ,  -2.313,  5.417,
 2025-Feb-27 02:00, , ,  -2.312,  5.417,
 2025-Feb-27 03:00, , ,  -2.312,  5.417,
 2025-Feb-27 04:00, , ,  -2.312,  5.417,
 2025-Feb-27 05:00, , ,  -2.311,  5.417,
 2025-Feb-27 06:00, , ,  -2.311,  5.417,
 2025-Feb-27 07:00, , ,  -2.311,  5.417,
 2025-Feb-27 08:00, , ,  -2.310,  5.418,
 2025-Feb-27 09:00, , ,  -2.310,  5.418,
 2025-Feb-27 10:00, , ,  -2.310,  5.418,
 2025-Feb-27 11:00, , ,  -2.310,  5.418,
 2025-Feb-27 12:00, , ,  -2.309,  5.418,
 2025-Feb-27 13:00, , ,  -2.309,  5.418,
 2025-Feb-27 14:00, , ,  -2.309,  5.418,
 2025-Feb-27 15:00, , ,  -2.308,  5.418,
 2025-Feb-27 16:00, , ,  -2.308,  5.418,
 2025-Feb-27 17:00, , ,  -2.308,  5.418,
 2025-Feb-27 18:00, , ,  -2.307,  5.418,
 2025-Feb-27 19:00, , ,  -2.307,  5.418,
 2025-Feb-27 20:00, , ,  -2.307,  5.418,
 2025-Feb-27 21:00, , ,  -2.306,  5.418,
 2025-Feb-27 22:00, , ,  -2.306,  5.418,
 2025-Feb-27 23:00, , ,  -2.306,  5.418,
 2025-Feb-28 00:00, , ,  -2.306,  5.418,
 2025-Feb-28 01:00, , ,  -2.305,  5.418,
 2025-Feb-28 02:00, , ,  -2.305,  5.418,
 2025-Feb-28 03:00, , ,  -2.305,  5.418,
 2025-Feb-28 04:00, , ,  -2.304,  5.418,
 2025-Feb-28 05:00, , ,  -2.304,  5.418,
 2025-Feb-28 06:00, , ,  -2.304,  5.418,
 2025-Feb-28 07:00, , ,  -2.303,  5.418,
 2025-Feb-28 08:00, , ,  -2.303,  5.418,
 2025-Feb-28 09:00, , ,  -2.303,  5.418,
 2025-Feb-28 10:00, , ,  -2.303,  5.418,
 2025-Feb-28 11:00, , ,  -2.302,  5.418,
 2025-Feb-28 12:00, , ,  -2.302,  5.418,
 2025-Feb-28 13:00, , ,  -2.302,  5.418,
 2025-Feb-28 14:00, , ,  -2.301,  5.418,
 2025-Feb-28 15:00, , ,  -2.301,  5.418,
 2025-Feb-28 16:00, , ,  -2.301,  5.418,
 2025-Feb-28 17:00, , ,  -2.300,  5.418,
 2025-Feb-28 18:00, , ,  -2.300,  5.418,
 2025-Feb-28 19:00, , ,  -2.300,  5.418,
 2025-Feb-28 20:00, , ,  -2.299,  5.418,
 2025-Feb-28 21:00, , ,  -2.299,  5.418,
 2025-Feb-28 22:00, , ,  -2.299,  5.418,
 2025-Feb-28 23:00, , ,  -2.299,  5.418,
 2025-Mar-01 00:00, , ,  -2.298,  5.418,
 2025-Mar-01 01:00, , ,  -2.298,  5.418,
 2025-Mar-01 02:00, , ,  -2.298,  5.418,
 2025-Mar-01 03:00, , ,  -2.297,  5.418,
 2025-Mar-01 04:00, , ,  -2.297,  5.418,
 2025-Mar-01 05:00, , ,  -2.297,  5.418,
 2025-Mar-01 06:00, , ,  -2.296,  5.418,
 2025-Mar-01 07:00, , ,  -2.296,  5.418,
 2025-Mar-01 08:00, , ,  -2.296,  5.418,
 2025-Mar-01 09:00, , ,  -2.296,  5.418,
 2025-Mar-01 10:00, , ,  -2.295,  5.418,
 2025-Mar-01 11:00, , ,  -2.295,  5.418,
 2025-Mar-01 12:00, , ,  -2.295,  5.418,
 2025-Mar-01 13:00, , ,  -2.294,  5.418,
 2025-Mar-01 14:00, , ,  -2.294,  5.418,
 2025-Mar-01 15:00, , ,  -2.294,  5.418,
 2025-Mar-01 16:00, , ,  -2.293,  5.418,
 2025-Mar-01 17:00, , ,  -2.293,  5.418,
 2025-Mar-01 18:00, , ,  -2.293,  5.418,
 2025-Mar-01 19:00, , ,  -2.292,  5.418,
 2025-Mar-01 20:00, , ,  -2.292,  5.418,
 2025-Mar-01 21:00, , ,  -2.292,  5.418,
 2025-Mar-01 22:00, , ,  -2.292,  5.418,
 2025-Mar-01 23:00, , ,  -2.291,  5.418,
 2025-Mar-02 00:00, , ,  -2.291,  5.418,
 2025-Mar-02 01:00, , ,  -2.291,  5.418,
 2025-Mar-02 02:00, , ,  -2.290,  5.418,
 2025-Mar-02 03:00, , ,  -2.290,  5.418,
 2025-Mar-02 04:00, , ,  -2.290,  5.418,
 2025-Mar-02 05:00, , ,  -2.289,  5.418,
 2025-Mar-02 06:00, , ,  -2.289,  5.418,
 2025-Mar-02 07:00, , ,  -2.289,  5.418,
 2025-Mar-02 08:00, , ,  -2.289,  5.418,
 2025-Mar-02 09:00, , ,  -2.288,  5.418,
 2025-Mar-02 10:00, , ,  -2.288,  5.418,
 2025-Mar-02 11:00, , ,  -2.288,  5.418,
 2025-Mar-02 12:00, , ,  -2.287,  5.418,
 2025-Mar-02 13:00, , ,  -2.287,  5.418,
 2025-Mar-02 14:00, , ,  -2.287,  5.418,
 2025-Mar-02 15:00, , ,  -2.286,  5.418,
 2025-Mar-02 16:00, , ,  -2.286,  5.418,
 2025-Mar-02 17:00, , ,  -2.286,  5.418,
 2025-Mar-02 18:00, , ,  -2.286,  5.418,
 2025-Mar-02 19:00, , ,  -2.285,  5.418,
 2025-Mar-02 20:00, , ,  -2.285,  5.418,
 2025-Mar-02 21:00, , ,  -2.285,  5.418,
 2025-Mar-02 22:00, , ,  -2.284,  5.418,
 2025-Mar-02 23:00, , ,  -2.284,  5.418,
 2025-Mar-03 00:00, , ,  -2.284,  5.418,
 2025-Mar-03 01:00, , ,  -2.283,  5.418,
 2025-Mar-03 02:00, , ,  -2.283,  5.418,
 2025-Mar-03 03:00, , ,  -2.283,  5.418,
 2025-Mar-03 04:00, , ,  -2.283,  5.418,
 2025-Mar-03 05:00, , ,  -2.282,  5.418,
 2025-Mar-03 06:00, , ,  -2.282,  5.418,
 2025-Mar-03 07:00, , ,  -2.282,  5.418,
 2025-Mar-03 08:00, , ,  -2.281,  5.418,
 2025-Mar-03 09:00, , ,  -2.281,  5.418,
 2025-Mar-03 10:00, , ,  -2.281,  5.418,
 2025-Mar-03 11:00, , ,  -2.280,  5.418,
 2025-Mar-03 12:00, , ,  -2.280,  5.418,
 2025-Mar-03 13:00, , ,  -2.280,  5.418,
 2025-Mar-03 14:00, , ,  -2.280,  5.418,
 2025-Mar-03 15:00, , ,  -2.279,  5.418,
 2025-Mar-03 16:00, , ,  -2.279,  5.418,
 2025-Mar-03 17:00, , ,  -2.279,  5.418,
 2025-Mar-03 18:00, , ,  -2.278,  5.418,
 2025-Mar-03 19:00, , ,  -2.278,  5.418,
 2025-Mar-03 20:00, , ,  -2.278,  5.418,
 2025-Mar-03 21:00, , ,  -2.277,  5.418,
 2025-Mar-03 22:00, , ,  -2.277,  5.418,
 2025-Mar-03 23:00, , ,  -2.277,  5.418,
 2025-Mar-04 00:00, , ,  -2.277,  5.418,
 2025-Mar-04 01:00, , ,  -2.276,  5.418,
